{
  "type": "FeatureCollection",
  "features": [
    {
      "type": "Feature",
      "properties": {
        "norad_id": 30232,
        "name": "FENGYUN 1C DEB",
        "group": "fengyun-1c-debris",
        "lat": 15.307507877230398,
        "lon": 177.89428732245676,
        "alt_km": 586.8398488606199,
        "timestamp": "2025-12-06T11:28:11.337406+00:00",
        "meta_object_name": "FENGYUN 1C DEB",
        "meta_object_id": "1999-025WR",
        "meta_epoch": "2025-12-05T11:05:28.269600",
        "meta_mean_motion": 14.63506449,
        "meta_eccentricity": 0.01364959,
        "meta_inclination": 98.6931,
        "meta_ra_of_asc_node": 179.2236,
        "meta_arg_of_pericenter": 12.2585,
        "meta_mean_anomaly": 54.5438,
        "meta_ephemeris_type": 0,
        "meta_classification_type": "U",
        "meta_norad_cat_id": 30232,
        "meta_element_set_no": 999,
        "meta_rev_at_epoch": 99645,
        "meta_bstar": 0.0011814124,
        "meta_mean_motion_dot": 6.956e-05,
        "meta_mean_motion_ddot": 0,
        "tle_line1": "1 30232U 99025WR  25339.46213275  .00006956  00000+0  11814-2 0  9999",
        "tle_line2": "2 30232  98.6931 179.2236 0136495  12.2585  54.5438 14.63506449996453"
      },
      "geometry": {
        "type": "Point",
        "coordinates": [
          177.89428732245676,
          15.307507877230398
        ]
      }
    },
    {
      "type": "Feature",
      "properties": {
        "norad_id": 30234,
        "name": "FENGYUN 1C DEB",
        "group": "fengyun-1c-debris",
        "lat": -67.52904024282368,
        "lon": 149.88839764092904,
        "alt_km": 887.5047903709446,
        "timestamp": "2025-12-06T11:28:11.337416+00:00",
        "meta_object_name": "FENGYUN 1C DEB",
        "meta_object_id": "1999-025WT",
        "meta_epoch": "2025-12-05T14:32:06.801792",
        "meta_mean_motion": 14.16849907,
        "meta_eccentricity": 0.0067077,
        "meta_inclination": 98.6339,
        "meta_ra_of_asc_node": 350.5932,
        "meta_arg_of_pericenter": 95.3524,
        "meta_mean_anomaly": 26.7935,
        "meta_ephemeris_type": 0,
        "meta_classification_type": "U",
        "meta_norad_cat_id": 30234,
        "meta_element_set_no": 999,
        "meta_rev_at_epoch": 97355,
        "meta_bstar": 0.00053926824,
        "meta_mean_motion_dot": 1.063e-05,
        "meta_mean_motion_ddot": 0,
        "tle_line1": "1 30234U 99025WT  25339.60563428  .00001063  00000+0  53927-3 0  9991",
        "tle_line2": "2 30234  98.6339 350.5932 0067077  95.3524  26.7935 14.16849907973554"
      },
      "geometry": {
        "type": "Point",
        "coordinates": [
          149.88839764092904,
          -67.52904024282368
        ]
      }
    },
    {
      "type": "Feature",
      "properties": {
        "norad_id": 30235,
        "name": "FENGYUN 1C DEB",
        "group": "fengyun-1c-debris",
        "lat": 32.46692493683527,
        "lon": -6.796075797901405,
        "alt_km": 941.4770271430234,
        "timestamp": "2025-12-06T11:28:11.337426+00:00",
        "meta_object_name": "FENGYUN 1C DEB",
        "meta_object_id": "1999-025WU",
        "meta_epoch": "2025-12-05T19:07:31.059264",
        "meta_mean_motion": 14.08763844,
        "meta_eccentricity": 0.01532411,
        "meta_inclination": 98.7499,
        "meta_ra_of_asc_node": 358.1662,
        "meta_arg_of_pericenter": 258.2845,
        "meta_mean_anomaly": 281.5759,
        "meta_ephemeris_type": 0,
        "meta_classification_type": "U",
        "meta_norad_cat_id": 30235,
        "meta_element_set_no": 999,
        "meta_rev_at_epoch": 96795,
        "meta_bstar": 0.00069300722,
        "meta_mean_motion_dot": 1.287e-05,
        "meta_mean_motion_ddot": 0,
        "tle_line1": "1 30235U 99025WU  25339.79688726  .00001287  00000+0  69301-3 0  9992",
        "tle_line2": "2 30235  98.7499 358.1662 0153241 258.2845 281.5759 14.08763844967950"
      },
      "geometry": {
        "type": "Point",
        "coordinates": [
          -6.796075797901405,
          32.46692493683527
        ]
      }
    },
    {
      "type": "Feature",
      "properties": {
        "norad_id": 30237,
        "name": "FENGYUN 1C DEB",
        "group": "fengyun-1c-debris",
        "lat": -35.99343741335326,
        "lon": 89.50985401645896,
        "alt_km": 752.6864656697426,
        "timestamp": "2025-12-06T11:28:11.337436+00:00",
        "meta_object_name": "FENGYUN 1C DEB",
        "meta_object_id": "1999-025WW",
        "meta_epoch": "2025-12-05T19:31:52.790016",
        "meta_mean_motion": 14.40731184,
        "meta_eccentricity": 0.00134685,
        "meta_inclination": 98.8271,
        "meta_ra_of_asc_node": 82.3439,
        "meta_arg_of_pericenter": 326.7008,
        "meta_mean_anomaly": 154.3978,
        "meta_ephemeris_type": 0,
        "meta_classification_type": "U",
        "meta_norad_cat_id": 30237,
        "meta_element_set_no": 999,
        "meta_rev_at_epoch": 97598,
        "meta_bstar": 0.0043712241,
        "meta_mean_motion_dot": 0.00013969,
        "meta_mean_motion_ddot": 0,
        "tle_line1": "1 30237U 99025WW  25339.81380544  .00013969  00000+0  43712-2 0  9991",
        "tle_line2": "2 30237  98.8271  82.3439 0013468 326.7008 154.3978 14.40731184975987"
      },
      "geometry": {
        "type": "Point",
        "coordinates": [
          89.50985401645896,
          -35.99343741335326
        ]
      }
    },
    {
      "type": "Feature",
      "properties": {
        "norad_id": 30239,
        "name": "FENGYUN 1C DEB",
        "group": "fengyun-1c-debris",
        "lat": 16.33070127882331,
        "lon": -46.12933647680834,
        "alt_km": 2441.2294573255176,
        "timestamp": "2025-12-06T11:28:11.337447+00:00",
        "meta_object_name": "FENGYUN 1C DEB",
        "meta_object_id": "1999-025WY",
        "meta_epoch": "2025-12-05T09:20:05.121024",
        "meta_mean_motion": 11.38030518,
        "meta_eccentricity": 0.13458437,
        "meta_inclination": 99.5918,
        "meta_ra_of_asc_node": 130.3012,
        "meta_arg_of_pericenter": 43.6568,
        "meta_mean_anomaly": 326.334,
        "meta_ephemeris_type": 0,
        "meta_classification_type": "U",
        "meta_norad_cat_id": 30239,
        "meta_element_set_no": 999,
        "meta_rev_at_epoch": 54451,
        "meta_bstar": 0.016833073,
        "meta_mean_motion_dot": 5.566e-05,
        "meta_mean_motion_ddot": 0,
        "tle_line1": "1 30239U 99025WY  25339.38894816  .00005566  00000+0  16833-1 0  9994",
        "tle_line2": "2 30239  99.5918 130.3012 1345843  43.6568 326.3340 11.38030518544510"
      },
      "geometry": {
        "type": "Point",
        "coordinates": [
          -46.12933647680834,
          16.33070127882331
        ]
      }
    },
    {
      "type": "Feature",
      "properties": {
        "norad_id": 30241,
        "name": "FENGYUN 1C DEB",
        "group": "fengyun-1c-debris",
        "lat": -56.97750852398763,
        "lon": -81.0976683092918,
        "alt_km": 948.2423359028899,
        "timestamp": "2025-12-06T11:28:11.337457+00:00",
        "meta_object_name": "FENGYUN 1C DEB",
        "meta_object_id": "1999-025XA",
        "meta_epoch": "2025-12-05T23:00:17.737632",
        "meta_mean_motion": 14.09535194,
        "meta_eccentricity": 0.01468304,
        "meta_inclination": 99.1481,
        "meta_ra_of_asc_node": 112.7289,
        "meta_arg_of_pericenter": 99.9508,
        "meta_mean_anomaly": 23.0104,
        "meta_ephemeris_type": 0,
        "meta_classification_type": "U",
        "meta_norad_cat_id": 30241,
        "meta_element_set_no": 999,
        "meta_rev_at_epoch": 96816,
        "meta_bstar": 0.0004779568,
        "meta_mean_motion_dot": 8.79e-06,
        "meta_mean_motion_ddot": 0,
        "tle_line1": "1 30241U 99025XA  25339.95853863  .00000879  00000+0  47796-3 0  9993",
        "tle_line2": "2 30241  99.1481 112.7289 0146830  99.9508  23.0104 14.09535194968167"
      },
      "geometry": {
        "type": "Point",
        "coordinates": [
          -81.0976683092918,
          -56.97750852398763
        ]
      }
    },
    {
      "type": "Feature",
      "properties": {
        "norad_id": 30242,
        "name": "FENGYUN 1C DEB",
        "group": "fengyun-1c-debris",
        "lat": -9.973680181329438,
        "lon": 16.330314139770373,
        "alt_km": 836.3630230283934,
        "timestamp": "2025-12-06T11:28:11.337467+00:00",
        "meta_object_name": "FENGYUN 1C DEB",
        "meta_object_id": "1999-025XB",
        "meta_epoch": "2025-12-05T21:06:35.146080",
        "meta_mean_motion": 14.17613912,
        "meta_eccentricity": 0.00113377,
        "meta_inclination": 98.6839,
        "meta_ra_of_asc_node": 14.2055,
        "meta_arg_of_pericenter": 73.5197,
        "meta_mean_anomaly": 104.7997,
        "meta_ephemeris_type": 0,
        "meta_classification_type": "U",
        "meta_norad_cat_id": 30242,
        "meta_element_set_no": 999,
        "meta_rev_at_epoch": 97329,
        "meta_bstar": 0.00099516229,
        "meta_mean_motion_dot": 1.982e-05,
        "meta_mean_motion_ddot": 0,
        "tle_line1": "1 30242U 99025XB  25339.87957345  .00001982  00000+0  99516-3 0  9998",
        "tle_line2": "2 30242  98.6839  14.2055 0011337  73.5197 104.7997 14.17613912973292"
      },
      "geometry": {
        "type": "Point",
        "coordinates": [
          16.330314139770373,
          -9.973680181329438
        ]
      }
    }
  ]
}